<?xml version="1.0" encoding="UTF-8"?>
<kml xmlns="http://www.opengis.net/kml/2.2"><Document>
<name>Raiwind field visit</name>
<Style id="A"><IconStyle><color>ff0055ff</color><scale>1.1</scale></IconStyle><LineStyle><color>ff0055ff</color><width>2</width></LineStyle><PolyStyle><fill>0</fill></PolyStyle></Style>
<Style id="B"><IconStyle><color>ffffaa00</color></IconStyle><LineStyle><color>ffffaa00</color><width>2</width></LineStyle><PolyStyle><fill>0</fill></PolyStyle></Style>
<Folder><name>Priority A</name>
<Placemark><name>A01 g0000</name><styleUrl>#A</styleUrl><description>https://www.google.com/maps/search/?api=1&amp;query=31.232282,74.251945</description><Point><coordinates>74.251945,31.232282,0</coordinates></Point></Placemark>
<Placemark><name>g0000 outline</name><styleUrl>#A</styleUrl><Polygon><outerBoundaryIs><LinearRing><coordinates>74.251642,31.232224,0 74.251643,31.232134,0 74.251433,31.232133,0 74.251434,31.232042,0 74.251119,31.232041,0 74.251119,31.231950,0 74.250804,31.231949,0 74.250701,31.231768,0 74.250491,31.231766,0 74.250491,31.231676,0 74.250387,31.231675,0 74.250389,31.231405,0 74.251018,31.231499,0 74.251121,31.231680,0 74.251332,31.231681,0 74.251331,31.231771,0 74.251541,31.231772,0 74.251540,31.231863,0 74.251959,31.231955,0 74.251957,31.232226,0 74.251642,31.232224,0</coordinates></LinearRing></outerBoundaryIs></Polygon></Placemark>
<Placemark><name>A02 g0200</name><styleUrl>#A</styleUrl><description>https://www.google.com/maps/search/?api=1&amp;query=31.217212,74.257492</description><Point><coordinates>74.257492,31.217212,0</coordinates></Point></Placemark>
<Placemark><name>g0200 outline</name><styleUrl>#A</styleUrl><Polygon><outerBoundaryIs><LinearRing><coordinates>74.254258,31.219969,0 74.254269,31.218615,0 74.254584,31.218617,0 74.254585,31.218437,0 74.254271,31.218435,0 74.254278,31.217442,0 74.254488,31.217444,0 74.254489,31.217353,0 74.254279,31.217352,0 74.254281,31.217081,0 74.254492,31.216992,0 74.254493,31.216812,0 74.254808,31.216814,0 74.254917,31.216273,0 74.255757,31.216278,0 74.255757,31.216368,0 74.255966,31.216460,0 74.255964,31.216730,0 74.256174,31.216732,0 74.256280,31.216552,0 74.256805,31.216555,0 74.256805,31.216465,0 74.257120,31.216466,0 74.257431,31.217009,0 74.257536,31.217010,0 74.257537,31.216920,0 74.258167,31.216924,0 74.258169,31.216653,0 74.257959,31.216652,0 74.257960,31.216561,0 74.257855,31.216561,0 74.257856,31.216380,0 74.257646,31.216379,0 74.257649,31.216018,0 74.257859,31.216020,0 74.257860,31.215929,0 74.258174,31.215931,0 74.258172,31.216202,0 74.258277,31.216202,0 74.258281,31.215751,0 74.258071,31.215750,0 74.258073,31.215479,0 74.258283,31.215481,0 74.258284,31.215300,0 74.258389,31.215301,0 74.258392,31.215030,0 74.258706,31.215032,0 74.258705,31.215212,0 74.259020,31.215214,0 74.259019,31.215304,0 74.259439,31.215307,0 74.259438,31.215397,0 74.259858,31.215399,0 74.259858,31.215490,0 74.260173,31.215491,0 74.260169,31.215943,0 74.259854,31.215941,0 74.259853,31.216031,0 74.259748,31.216030,0 74.259746,31.216391,0 74.259641,31.216391,0 74.259639,31.216571,0 74.259849,31.216572,0 74.259846,31.216933,0 74.260056,31.216934,0 74.260054,31.217205,0 74.259739,31.217203,0 74.259741,31.217023,0 74.259531,31.217022,0 74.259526,31.217653,0 74.259631,31.217654,0 74.259628,31.218015,0 74.259208,31.218012,0 74.259209,31.217922,0 74.258999,31.217921,0 74.258998,31.218011,0 74.258683,31.218009,0 74.258681,31.218280,0 74.258890,31.218371,0 74.258888,31.218732,0 74.258782,31.218732,0 74.258675,31.219092,0 74.258360,31.219090,0 74.258360,31.219000,0 74.258150,31.218999,0 74.258145,31.219720,0 74.257830,31.219719,0 74.257828,31.219989,0 74.254258,31.219969,0</coordinates></LinearRing></outerBoundaryIs></Polygon></Placemark>
<Placemark><name>A03 g0202</name><styleUrl>#A</styleUrl><description>https://www.google.com/maps/search/?api=1&amp;query=31.215686,74.273586</description><Point><coordinates>74.273586,31.215686,0</coordinates></Point></Placemark>
<Placemark><name>g0202 outline</name><styleUrl>#A</styleUrl><Polygon><outerBoundaryIs><LinearRing><coordinates>74.273399,31.215657,0 74.273400,31.215477,0 74.273505,31.215477,0 74.273506,31.215387,0 74.273611,31.215388,0 74.273610,31.215478,0 74.273820,31.215479,0 74.273820,31.215569,0 74.273399,31.215657,0</coordinates></LinearRing></outerBoundaryIs></Polygon></Placemark>
<Placemark><name>A04 g0303</name><styleUrl>#A</styleUrl><description>https://www.google.com/maps/search/?api=1&amp;query=31.207929,74.282367</description><Point><coordinates>74.282367,31.207929,0</coordinates></Point></Placemark>
<Placemark><name>g0303 outline</name><styleUrl>#A</styleUrl><Polygon><outerBoundaryIs><LinearRing><coordinates>74.282271,31.208579,0 74.282272,31.208399,0 74.282167,31.208398,0 74.282169,31.208218,0 74.282064,31.208217,0 74.282065,31.208036,0 74.281960,31.208036,0 74.281964,31.207495,0 74.281859,31.207494,0 74.281863,31.207043,0 74.281968,31.207044,0 74.281968,31.206953,0 74.282073,31.206954,0 74.282180,31.206774,0 74.282600,31.206776,0 74.282599,31.206867,0 74.282808,31.206958,0 74.282807,31.207138,0 74.282912,31.207139,0 74.282911,31.207229,0 74.283331,31.207232,0 74.283333,31.206961,0 74.283438,31.206961,0 74.283439,31.206871,0 74.284068,31.206965,0 74.284065,31.207326,0 74.283960,31.207325,0 74.283957,31.207686,0 74.283852,31.207686,0 74.283850,31.207956,0 74.283745,31.207956,0 74.283743,31.208226,0 74.283638,31.208226,0 74.283637,31.208406,0 74.283322,31.208405,0 74.283321,31.208495,0 74.282692,31.208491,0 74.282691,31.208581,0 74.282271,31.208579,0</coordinates></LinearRing></outerBoundaryIs></Polygon></Placemark>
<Placemark><name>A05 g0402</name><styleUrl>#A</styleUrl><description>https://www.google.com/maps/search/?api=1&amp;query=31.196625,74.271474</description><Point><coordinates>74.271474,31.196625,0</coordinates></Point></Placemark>
<Placemark><name>g0402 outline</name><styleUrl>#A</styleUrl><Polygon><outerBoundaryIs><LinearRing><coordinates>74.271023,31.196877,0 74.271024,31.196786,0 74.270919,31.196786,0 74.270922,31.196425,0 74.271027,31.196426,0 74.271028,31.196335,0 74.271343,31.196337,0 74.271342,31.196427,0 74.272077,31.196431,0 74.272075,31.196702,0 74.271969,31.196702,0 74.271969,31.196792,0 74.271549,31.196789,0 74.271548,31.196880,0 74.271023,31.196877,0</coordinates></LinearRing></outerBoundaryIs></Polygon></Placemark>
<Placemark><name>A06 g0501</name><styleUrl>#A</styleUrl><description>https://www.google.com/maps/search/?api=1&amp;query=31.189397,74.267359</description><Point><coordinates>74.267360,31.189397,0</coordinates></Point></Placemark>
<Placemark><name>g0501 outline</name><styleUrl>#A</styleUrl><Polygon><outerBoundaryIs><LinearRing><coordinates>74.267301,31.189547,0 74.267305,31.189096,0 74.267620,31.189098,0 74.267616,31.189549,0 74.267301,31.189547,0</coordinates></LinearRing></outerBoundaryIs></Polygon></Placemark>
<Placemark><name>A07 g0600</name><styleUrl>#A</styleUrl><description>https://www.google.com/maps/search/?api=1&amp;query=31.176002,74.257431</description><Point><coordinates>74.257431,31.176002,0</coordinates></Point></Placemark>
<Placemark><name>g0600 outline</name><styleUrl>#A</styleUrl><Polygon><outerBoundaryIs><LinearRing><coordinates>74.257435,31.176137,0 74.257447,31.174694,0 74.257552,31.174694,0 74.257554,31.174333,0 74.257974,31.174336,0 74.257974,31.174426,0 74.258078,31.174427,0 74.258079,31.174336,0 74.258394,31.174338,0 74.258390,31.174879,0 74.258495,31.174880,0 74.258485,31.176143,0 74.258065,31.176141,0 74.258068,31.175780,0 74.257858,31.175779,0 74.257855,31.176140,0 74.257435,31.176137,0</coordinates></LinearRing></outerBoundaryIs></Polygon></Placemark>
<Placemark><name>A08 g0701</name><styleUrl>#A</styleUrl><description>https://www.google.com/maps/search/?api=1&amp;query=31.171771,74.262103</description><Point><coordinates>74.262104,31.171771,0</coordinates></Point></Placemark>
<Placemark><name>g0701 outline</name><styleUrl>#A</styleUrl><Polygon><outerBoundaryIs><LinearRing><coordinates>74.260300,31.172184,0 74.260303,31.171733,0 74.260618,31.171734,0 74.260619,31.171644,0 74.261038,31.171647,0 74.261039,31.171556,0 74.261249,31.171558,0 74.261250,31.171467,0 74.261040,31.171466,0 74.261043,31.171105,0 74.261567,31.171108,0 74.261564,31.171559,0 74.262193,31.171563,0 74.262190,31.172014,0 74.261350,31.172009,0 74.261352,31.171829,0 74.261247,31.171828,0 74.261245,31.172009,0 74.261140,31.172008,0 74.261140,31.172098,0 74.260930,31.172097,0 74.260929,31.172187,0 74.260300,31.172184,0</coordinates></LinearRing></outerBoundaryIs></Polygon></Placemark>
<Placemark><name>A09 g0800</name><styleUrl>#A</styleUrl><description>https://www.google.com/maps/search/?api=1&amp;query=31.161948,74.256436</description><Point><coordinates>74.256436,31.161948,0</coordinates></Point></Placemark>
<Placemark><name>g0800 outline</name><styleUrl>#A</styleUrl><Polygon><outerBoundaryIs><LinearRing><coordinates>74.256388,31.162417,0 74.256389,31.162326,0 74.256494,31.162327,0 74.256495,31.162237,0 74.256390,31.162236,0 74.256393,31.161785,0 74.256708,31.161787,0 74.256711,31.161426,0 74.256606,31.161425,0 74.256607,31.161335,0 74.256396,31.161424,0 74.256400,31.160973,0 74.256505,31.160974,0 74.256506,31.160793,0 74.256611,31.160794,0 74.256612,31.160704,0 74.256926,31.160705,0 74.256926,31.160796,0 74.257031,31.160796,0 74.257022,31.161879,0 74.257127,31.161880,0 74.257123,31.162421,0 74.256388,31.162417,0</coordinates></LinearRing></outerBoundaryIs></Polygon></Placemark>
<Placemark><name>A10 g0803</name><styleUrl>#A</styleUrl><description>https://www.google.com/maps/search/?api=1&amp;query=31.165828,74.292197</description><Point><coordinates>74.292197,31.165828,0</coordinates></Point></Placemark>
<Placemark><name>g0803 outline</name><styleUrl>#A</styleUrl><Polygon><outerBoundaryIs><LinearRing><coordinates>74.291931,31.166046,0 74.291933,31.165685,0 74.292038,31.165685,0 74.292039,31.165595,0 74.293298,31.165602,0 74.293295,31.165963,0 74.292875,31.165961,0 74.292875,31.166051,0 74.292560,31.166049,0 74.292561,31.165959,0 74.292351,31.165958,0 74.292350,31.166048,0 74.291931,31.166046,0</coordinates></LinearRing></outerBoundaryIs></Polygon></Placemark>
<Placemark><name>A11 g0804</name><styleUrl>#A</styleUrl><description>https://www.google.com/maps/search/?api=1&amp;query=31.161909,74.293854</description><Point><coordinates>74.293854,31.161909,0</coordinates></Point></Placemark>
<Placemark><name>g0804 outline</name><styleUrl>#A</styleUrl><Polygon><outerBoundaryIs><LinearRing><coordinates>74.293744,31.161995,0 74.293745,31.161905,0 74.293640,31.161905,0 74.293641,31.161724,0 74.293746,31.161725,0 74.293850,31.161906,0 74.294375,31.161909,0 74.294374,31.161999,0 74.293744,31.161995,0</coordinates></LinearRing></outerBoundaryIs></Polygon></Placemark>
<Placemark><name>A12 g0805</name><styleUrl>#A</styleUrl><description>https://www.google.com/maps/search/?api=1&amp;query=31.163150,74.305254</description><Point><coordinates>74.305254,31.163150,0</coordinates></Point></Placemark>
<Placemark><name>g0805 outline</name><styleUrl>#A</styleUrl><Polygon><outerBoundaryIs><LinearRing><coordinates>74.304643,31.163859,0 74.304649,31.162957,0 74.305489,31.162962,0 74.305488,31.163052,0 74.305593,31.163052,0 74.305588,31.163774,0 74.305483,31.163774,0 74.305482,31.163864,0 74.304643,31.163859,0</coordinates></LinearRing></outerBoundaryIs></Polygon></Placemark>
<Placemark><name>A13 g0905</name><styleUrl>#A</styleUrl><description>https://www.google.com/maps/search/?api=1&amp;query=31.152191,74.304847</description><Point><coordinates>74.304847,31.152191,0</coordinates></Point></Placemark>
<Placemark><name>g0905 outline</name><styleUrl>#A</styleUrl><Polygon><outerBoundaryIs><LinearRing><coordinates>74.304830,31.152582,0 74.304831,31.152492,0 74.304621,31.152491,0 74.304624,31.152130,0 74.304519,31.152129,0 74.304525,31.151227,0 74.304945,31.151229,0 74.304943,31.151410,0 74.305258,31.151411,0 74.305257,31.151502,0 74.305782,31.151504,0 74.305781,31.151595,0 74.305886,31.151595,0 74.305879,31.152588,0 74.305564,31.152586,0 74.305568,31.152045,0 74.305463,31.152044,0 74.305459,31.152585,0 74.304830,31.152582,0</coordinates></LinearRing></outerBoundaryIs></Polygon></Placemark>
<Placemark><name>A14 g0907</name><styleUrl>#A</styleUrl><description>https://www.google.com/maps/search/?api=1&amp;query=31.152788,74.330866</description><Point><coordinates>74.330866,31.152788,0</coordinates></Point></Placemark>
<Placemark><name>g0907 outline</name><styleUrl>#A</styleUrl><Polygon><outerBoundaryIs><LinearRing><coordinates>74.330532,31.152899,0 74.330533,31.152628,0 74.330638,31.152628,0 74.330639,31.152538,0 74.331059,31.152540,0 74.331058,31.152631,0 74.331163,31.152631,0 74.331161,31.152902,0 74.330532,31.152899,0</coordinates></LinearRing></outerBoundaryIs></Polygon></Placemark>
<Placemark><name>A15 g0809</name><styleUrl>#A</styleUrl><description>https://www.google.com/maps/search/?api=1&amp;query=31.163752,74.353553</description><Point><coordinates>74.353553,31.163752,0</coordinates></Point></Placemark>
<Placemark><name>g0809 outline</name><styleUrl>#A</styleUrl><Polygon><outerBoundaryIs><LinearRing><coordinates>74.353429,31.164475,0 74.353430,31.164384,0 74.353325,31.164384,0 74.353327,31.164023,0 74.353222,31.164022,0 74.353225,31.163571,0 74.353330,31.163572,0 74.353331,31.163481,0 74.353751,31.163484,0 74.353749,31.163754,0 74.353854,31.163755,0 74.353852,31.164026,0 74.353957,31.164026,0 74.353954,31.164387,0 74.353744,31.164386,0 74.353744,31.164476,0 74.353429,31.164475,0</coordinates></LinearRing></outerBoundaryIs></Polygon></Placemark>
<Placemark><name>A16 g0709</name><styleUrl>#A</styleUrl><description>https://www.google.com/maps/search/?api=1&amp;query=31.168573,74.346933</description><Point><coordinates>74.346933,31.168573,0</coordinates></Point></Placemark>
<Placemark><name>g0709 outline</name><styleUrl>#A</styleUrl><Polygon><outerBoundaryIs><LinearRing><coordinates>74.346684,31.168771,0 74.346687,31.168320,0 74.347107,31.168322,0 74.347106,31.168503,0 74.347211,31.168503,0 74.347209,31.168774,0 74.346684,31.168771,0</coordinates></LinearRing></outerBoundaryIs></Polygon></Placemark>
<Placemark><name>A17 g0608</name><styleUrl>#A</styleUrl><description>https://www.google.com/maps/search/?api=1&amp;query=31.176813,74.341983</description><Point><coordinates>74.341983,31.176813,0</coordinates></Point></Placemark>
<Placemark><name>g0608 outline</name><styleUrl>#A</styleUrl><Polygon><outerBoundaryIs><LinearRing><coordinates>74.341588,31.177317,0 74.341591,31.176956,0 74.341696,31.176957,0 74.341697,31.176776,0 74.342537,31.176780,0 74.342535,31.176961,0 74.342326,31.176960,0 74.342325,31.177050,0 74.342114,31.177139,0 74.342113,31.177320,0 74.341588,31.177317,0</coordinates></LinearRing></outerBoundaryIs></Polygon></Placemark>
<Placemark><name>A18 g0707</name><styleUrl>#A</styleUrl><description>https://www.google.com/maps/search/?api=1&amp;query=31.174181,74.330989</description><Point><coordinates>74.330989,31.174181,0</coordinates></Point></Placemark>
<Placemark><name>g0707 outline</name><styleUrl>#A</styleUrl><Polygon><outerBoundaryIs><LinearRing><coordinates>74.329851,31.175001,0 74.329859,31.173918,0 74.330908,31.173924,0 74.330905,31.174465,0 74.330485,31.174463,0 74.330481,31.175004,0 74.329851,31.175001,0</coordinates></LinearRing></outerBoundaryIs></Polygon></Placemark>
<Placemark><name>A19 g0508</name><styleUrl>#A</styleUrl><description>https://www.google.com/maps/search/?api=1&amp;query=31.188395,74.335255</description><Point><coordinates>74.335255,31.188395,0</coordinates></Point></Placemark>
<Placemark><name>g0508 outline</name><styleUrl>#A</styleUrl><Polygon><outerBoundaryIs><LinearRing><coordinates>74.334898,31.188561,0 74.334901,31.188200,0 74.335426,31.188203,0 74.335425,31.188293,0 74.335635,31.188294,0 74.335633,31.188565,0 74.334898,31.188561,0</coordinates></LinearRing></outerBoundaryIs></Polygon></Placemark>
<Placemark><name>A20 g0409</name><styleUrl>#A</styleUrl><description>https://www.google.com/maps/search/?api=1&amp;query=31.197077,74.347258</description><Point><coordinates>74.347258,31.197077,0</coordinates></Point></Placemark>
<Placemark><name>g0409 outline</name><styleUrl>#A</styleUrl><Polygon><outerBoundaryIs><LinearRing><coordinates>74.346802,31.197464,0 74.346803,31.197284,0 74.346593,31.197283,0 74.346597,31.196741,0 74.347332,31.196745,0 74.347331,31.196835,0 74.347436,31.196836,0 74.347432,31.197467,0 74.346802,31.197464,0</coordinates></LinearRing></outerBoundaryIs></Polygon></Placemark>
<Placemark><name>A21 g0408</name><styleUrl>#A</styleUrl><description>https://www.google.com/maps/search/?api=1&amp;query=31.194172,74.340065</description><Point><coordinates>74.340065,31.194172,0</coordinates></Point></Placemark>
<Placemark><name>g0408 outline</name><styleUrl>#A</styleUrl><Polygon><outerBoundaryIs><LinearRing><coordinates>74.340106,31.194362,0 74.340107,31.194272,0 74.340002,31.194271,0 74.340003,31.194091,0 74.339898,31.194091,0 74.339899,31.193910,0 74.339794,31.193910,0 74.339796,31.193639,0 74.340426,31.193642,0 74.340425,31.193732,0 74.340740,31.193734,0 74.340738,31.194095,0 74.340423,31.194093,0 74.340421,31.194364,0 74.340106,31.194362,0</coordinates></LinearRing></outerBoundaryIs></Polygon></Placemark>
<Placemark><name>A22 g0507</name><styleUrl>#A</styleUrl><description>https://www.google.com/maps/search/?api=1&amp;query=31.193061,74.326784</description><Point><coordinates>74.326784,31.193061,0</coordinates></Point></Placemark>
<Placemark><name>g0507 outline</name><styleUrl>#A</styleUrl><Polygon><outerBoundaryIs><LinearRing><coordinates>74.326781,31.193662,0 74.326782,31.193481,0 74.326887,31.193482,0 74.326888,31.193392,0 74.326783,31.193391,0 74.326784,31.193301,0 74.326889,31.193301,0 74.326891,31.193031,0 74.326785,31.193030,0 74.326784,31.193210,0 74.326679,31.193210,0 74.326677,31.193481,0 74.326572,31.193480,0 74.326575,31.193119,0 74.326680,31.193120,0 74.326681,31.192939,0 74.326786,31.192940,0 74.326892,31.192760,0 74.327102,31.192761,0 74.327102,31.192851,0 74.327207,31.192852,0 74.327205,31.193032,0 74.327624,31.193215,0 74.327623,31.193395,0 74.327413,31.193394,0 74.327412,31.193485,0 74.327202,31.193483,0 74.327203,31.193393,0 74.327098,31.193393,0 74.327096,31.193573,0 74.326992,31.193572,0 74.326991,31.193663,0 74.326781,31.193662,0</coordinates></LinearRing></outerBoundaryIs></Polygon></Placemark>
<Placemark><name>A23 g0406</name><styleUrl>#A</styleUrl><description>https://www.google.com/maps/search/?api=1&amp;query=31.195253,74.323222</description><Point><coordinates>74.323222,31.195253,0</coordinates></Point></Placemark>
<Placemark><name>g0406 outline</name><styleUrl>#A</styleUrl><Polygon><outerBoundaryIs><LinearRing><coordinates>74.322886,31.195265,0 74.322888,31.194995,0 74.323098,31.194996,0 74.323099,31.194906,0 74.323414,31.194907,0 74.323411,31.195268,0 74.322886,31.195265,0</coordinates></LinearRing></outerBoundaryIs></Polygon></Placemark>
<Placemark><name>A24 g0605</name><styleUrl>#A</styleUrl><description>https://www.google.com/maps/search/?api=1&amp;query=31.177955,74.313023</description><Point><coordinates>74.313023,31.177955,0</coordinates></Point></Placemark>
<Placemark><name>g0605 outline</name><styleUrl>#A</styleUrl><Polygon><outerBoundaryIs><LinearRing><coordinates>74.312718,31.178971,0 74.312719,31.178790,0 74.312614,31.178790,0 74.312625,31.177346,0 74.313149,31.177349,0 74.313143,31.178251,0 74.313248,31.178252,0 74.313245,31.178612,0 74.313140,31.178612,0 74.313138,31.178973,0 74.312718,31.178971,0</coordinates></LinearRing></outerBoundaryIs></Polygon></Placemark>
<Placemark><name>A25 g0503</name><styleUrl>#A</styleUrl><description>https://www.google.com/maps/search/?api=1&amp;query=31.185416,74.288289</description><Point><coordinates>74.288289,31.185416,0</coordinates></Point></Placemark>
<Placemark><name>g0503 outline</name><styleUrl>#A</styleUrl><Polygon><outerBoundaryIs><LinearRing><coordinates>74.288422,31.186237,0 74.288422,31.186147,0 74.288318,31.186146,0 74.288319,31.185966,0 74.288214,31.185965,0 74.288217,31.185604,0 74.288112,31.185604,0 74.288113,31.185423,0 74.288008,31.185423,0 74.288010,31.185152,0 74.287905,31.185151,0 74.287910,31.184520,0 74.288015,31.184521,0 74.288017,31.184250,0 74.288437,31.184252,0 74.288436,31.184342,0 74.288751,31.184344,0 74.288745,31.185156,0 74.288850,31.185157,0 74.288847,31.185518,0 74.288742,31.185517,0 74.288741,31.185697,0 74.288846,31.185698,0 74.288842,31.186149,0 74.288737,31.186149,0 74.288737,31.186239,0 74.288422,31.186237,0</coordinates></LinearRing></outerBoundaryIs></Polygon></Placemark>
<Placemark><name>A26 g0404</name><styleUrl>#A</styleUrl><description>https://www.google.com/maps/search/?api=1&amp;query=31.194192,74.298270</description><Point><coordinates>74.298270,31.194192,0</coordinates></Point></Placemark>
<Placemark><name>g0404 outline</name><styleUrl>#A</styleUrl><Polygon><outerBoundaryIs><LinearRing><coordinates>74.298015,31.194681,0 74.298016,31.194591,0 74.297596,31.194498,0 74.297598,31.194318,0 74.297493,31.194317,0 74.297497,31.193776,0 74.298546,31.193782,0 74.298542,31.194323,0 74.298437,31.194322,0 74.298330,31.194683,0 74.298015,31.194681,0</coordinates></LinearRing></outerBoundaryIs></Polygon></Placemark>
<Placemark><name>A27 g0306</name><styleUrl>#A</styleUrl><description>https://www.google.com/maps/search/?api=1&amp;query=31.202725,74.321407</description><Point><coordinates>74.321407,31.202726,0</coordinates></Point></Placemark>
<Placemark><name>g0306 outline</name><styleUrl>#A</styleUrl><Polygon><outerBoundaryIs><LinearRing><coordinates>74.321358,31.203558,0 74.321359,31.203287,0 74.321254,31.203287,0 74.321255,31.203197,0 74.321045,31.203195,0 74.321046,31.203105,0 74.320941,31.203105,0 74.320942,31.203014,0 74.320837,31.203014,0 74.320837,31.202924,0 74.320732,31.202923,0 74.320629,31.202742,0 74.320419,31.202741,0 74.320421,31.202470,0 74.320526,31.202471,0 74.320526,31.202381,0 74.320841,31.202382,0 74.320843,31.202112,0 74.320948,31.202112,0 74.321054,31.201932,0 74.321369,31.201934,0 74.321369,31.202024,0 74.321578,31.202025,0 74.321578,31.202116,0 74.321787,31.202207,0 74.321779,31.203380,0 74.321674,31.203379,0 74.321672,31.203560,0 74.321358,31.203558,0</coordinates></LinearRing></outerBoundaryIs></Polygon></Placemark>
<Placemark><name>A28 g0206</name><styleUrl>#A</styleUrl><description>https://www.google.com/maps/search/?api=1&amp;query=31.215911,74.317596</description><Point><coordinates>74.317596,31.215911,0</coordinates></Point></Placemark>
<Placemark><name>g0206 outline</name><styleUrl>#A</styleUrl><Polygon><outerBoundaryIs><LinearRing><coordinates>74.317804,31.216081,0 74.317804,31.215991,0 74.317489,31.215989,0 74.317491,31.215718,0 74.318226,31.215722,0 74.318224,31.216083,0 74.317804,31.216081,0</coordinates></LinearRing></outerBoundaryIs></Polygon></Placemark>
<Placemark><name>A29 g0204</name><styleUrl>#A</styleUrl><description>https://www.google.com/maps/search/?api=1&amp;query=31.215332,74.299869</description><Point><coordinates>74.299869,31.215332,0</coordinates></Point></Placemark>
<Placemark><name>g0204 outline</name><styleUrl>#A</styleUrl><Polygon><outerBoundaryIs><LinearRing><coordinates>74.299856,31.215443,0 74.299859,31.215082,0 74.300489,31.215086,0 74.300486,31.215446,0 74.299856,31.215443,0</coordinates></LinearRing></outerBoundaryIs></Polygon></Placemark>
<Placemark><name>A30 g0003</name><styleUrl>#A</styleUrl><description>https://www.google.com/maps/search/?api=1&amp;query=31.236677,74.291037</description><Point><coordinates>74.291037,31.236677,0</coordinates></Point></Placemark>
<Placemark><name>g0003 outline</name><styleUrl>#A</styleUrl><Polygon><outerBoundaryIs><LinearRing><coordinates>74.291088,31.236869,0 74.291088,31.236778,0 74.290983,31.236778,0 74.290985,31.236507,0 74.291300,31.236509,0 74.291300,31.236599,0 74.291405,31.236600,0 74.291403,31.236870,0 74.291088,31.236869,0</coordinates></LinearRing></outerBoundaryIs></Polygon></Placemark>
<Placemark><name>A31 g0009</name><styleUrl>#A</styleUrl><description>https://www.google.com/maps/search/?api=1&amp;query=31.236534,74.347455</description><Point><coordinates>74.347456,31.236534,0</coordinates></Point></Placemark>
<Placemark><name>g0009 outline</name><styleUrl>#A</styleUrl><Polygon><outerBoundaryIs><LinearRing><coordinates>74.347476,31.236897,0 74.347375,31.236355,0 74.347585,31.236265,0 74.347584,31.236446,0 74.347689,31.236446,0 74.347687,31.236807,0 74.347476,31.236897,0</coordinates></LinearRing></outerBoundaryIs></Polygon></Placemark>
</Folder>
<Folder><name>Priority B</name>
<Placemark><name>B01 g0801</name><styleUrl>#B</styleUrl><description>https://www.google.com/maps/search/?api=1&amp;query=31.158893,74.263661</description><Point><coordinates>74.263661,31.158893,0</coordinates></Point></Placemark>
<Placemark><name>g0801 outline</name><styleUrl>#B</styleUrl><Polygon><outerBoundaryIs><LinearRing><coordinates>74.263549,31.159029,0 74.263552,31.158668,0 74.263657,31.158669,0 74.263659,31.158489,0 74.263973,31.158490,0 74.263972,31.158581,0 74.264077,31.158581,0 74.264074,31.159032,0 74.263549,31.159029,0</coordinates></LinearRing></outerBoundaryIs></Polygon></Placemark>
<Placemark><name>B02 g0704</name><styleUrl>#B</styleUrl><description>https://www.google.com/maps/search/?api=1&amp;query=31.172722,74.293569</description><Point><coordinates>74.293569,31.172722,0</coordinates></Point></Placemark>
<Placemark><name>g0704 outline</name><styleUrl>#B</styleUrl><Polygon><outerBoundaryIs><LinearRing><coordinates>74.293139,31.172910,0 74.293141,31.172549,0 74.293246,31.172549,0 74.293247,31.172459,0 74.294296,31.172465,0 74.294297,31.172375,0 74.294402,31.172375,0 74.294403,31.172195,0 74.294718,31.172196,0 74.294717,31.172287,0 74.294927,31.172378,0 74.294925,31.172559,0 74.295030,31.172559,0 74.295028,31.172830,0 74.294608,31.172827,0 74.294608,31.172918,0 74.293139,31.172910,0</coordinates></LinearRing></outerBoundaryIs></Polygon></Placemark>
<Placemark><name>B03 g0806</name><styleUrl>#B</styleUrl><description>https://www.google.com/maps/search/?api=1&amp;query=31.157608,74.319560</description><Point><coordinates>74.319560,31.157608,0</coordinates></Point></Placemark>
<Placemark><name>g0806 outline</name><styleUrl>#B</styleUrl><Polygon><outerBoundaryIs><LinearRing><coordinates>74.319165,31.157892,0 74.319168,31.157441,0 74.319483,31.157442,0 74.319484,31.157352,0 74.319799,31.157354,0 74.319798,31.157444,0 74.319903,31.157445,0 74.319900,31.157805,0 74.319795,31.157805,0 74.319795,31.157895,0 74.319165,31.157892,0</coordinates></LinearRing></outerBoundaryIs></Polygon></Placemark>
<Placemark><name>B04 g0607</name><styleUrl>#B</styleUrl><description>https://www.google.com/maps/search/?api=1&amp;query=31.178465,74.326214</description><Point><coordinates>74.326214,31.178464,0</coordinates></Point></Placemark>
<Placemark><name>g0607 outline</name><styleUrl>#B</styleUrl><Polygon><outerBoundaryIs><LinearRing><coordinates>74.326048,31.178590,0 74.326050,31.178319,0 74.326365,31.178321,0 74.326363,31.178592,0 74.326048,31.178590,0</coordinates></LinearRing></outerBoundaryIs></Polygon></Placemark>
<Placemark><name>B05 g0506</name><styleUrl>#B</styleUrl><description>https://www.google.com/maps/search/?api=1&amp;query=31.192165,74.320374</description><Point><coordinates>74.320374,31.192165,0</coordinates></Point></Placemark>
<Placemark><name>g0506 outline</name><styleUrl>#B</styleUrl><Polygon><outerBoundaryIs><LinearRing><coordinates>74.319864,31.192182,0 74.319865,31.192091,0 74.320075,31.192093,0 74.320076,31.192002,0 74.320496,31.191914,0 74.320495,31.192095,0 74.320285,31.192094,0 74.320284,31.192184,0 74.319864,31.192182,0</coordinates></LinearRing></outerBoundaryIs></Polygon></Placemark>
<Placemark><name>B06 g0405</name><styleUrl>#B</styleUrl><description>https://www.google.com/maps/search/?api=1&amp;query=31.200605,74.312439</description><Point><coordinates>74.312439,31.200605,0</coordinates></Point></Placemark>
<Placemark><name>g0405 outline</name><styleUrl>#B</styleUrl><Polygon><outerBoundaryIs><LinearRing><coordinates>74.312452,31.201255,0 74.312453,31.201075,0 74.312348,31.201074,0 74.312349,31.200894,0 74.312245,31.200893,0 74.312142,31.200532,0 74.312037,31.200531,0 74.312038,31.200441,0 74.311933,31.200440,0 74.311934,31.200260,0 74.311829,31.200259,0 74.311831,31.199989,0 74.312041,31.199990,0 74.312042,31.199900,0 74.312252,31.199901,0 74.312252,31.199810,0 74.312462,31.199811,0 74.312463,31.199721,0 74.312673,31.199722,0 74.312673,31.199632,0 74.312883,31.199633,0 74.312884,31.199543,0 74.313094,31.199544,0 74.313095,31.199454,0 74.313305,31.199455,0 74.313305,31.199365,0 74.313515,31.199366,0 74.313516,31.199276,0 74.313726,31.199277,0 74.313726,31.199187,0 74.314146,31.199189,0 74.314145,31.199279,0 74.314460,31.199281,0 74.314460,31.199371,0 74.314565,31.199372,0 74.314564,31.199462,0 74.314669,31.199462,0 74.314668,31.199553,0 74.314773,31.199553,0 74.314773,31.199643,0 74.314878,31.199644,0 74.314981,31.199825,0 74.315191,31.199826,0 74.315189,31.200097,0 74.315084,31.200096,0 74.315084,31.200186,0 74.314874,31.200185,0 74.314873,31.200276,0 74.314663,31.200274,0 74.314662,31.200365,0 74.314453,31.200364,0 74.314452,31.200454,0 74.314031,31.200542,0 74.314031,31.200632,0 74.313926,31.200631,0 74.313925,31.200722,0 74.313715,31.200720,0 74.313609,31.200900,0 74.313189,31.200898,0 74.313188,31.200988,0 74.313084,31.200988,0 74.312977,31.201168,0 74.312767,31.201167,0 74.312767,31.201257,0 74.312452,31.201255,0</coordinates></LinearRing></outerBoundaryIs></Polygon></Placemark>
<Placemark><name>B07 g0302</name><styleUrl>#B</styleUrl><description>https://www.google.com/maps/search/?api=1&amp;query=31.202223,74.280793</description><Point><coordinates>74.280793,31.202223,0</coordinates></Point></Placemark>
<Placemark><name>g0302 outline</name><styleUrl>#B</styleUrl><Polygon><outerBoundaryIs><LinearRing><coordinates>74.280744,31.202345,0 74.280746,31.202074,0 74.281060,31.202076,0 74.281059,31.202347,0 74.280744,31.202345,0</coordinates></LinearRing></outerBoundaryIs></Polygon></Placemark>
<Placemark><name>B08 g0401</name><styleUrl>#B</styleUrl><description>https://www.google.com/maps/search/?api=1&amp;query=31.201208,74.265923</description><Point><coordinates>74.265923,31.201208,0</coordinates></Point></Placemark>
<Placemark><name>g0401 outline</name><styleUrl>#B</styleUrl><Polygon><outerBoundaryIs><LinearRing><coordinates>74.265635,31.201538,0 74.265635,31.201448,0 74.265215,31.201445,0 74.265216,31.201355,0 74.265846,31.201268,0 74.265845,31.201449,0 74.265635,31.201538,0</coordinates></LinearRing></outerBoundaryIs></Polygon></Placemark>
<Placemark><name>B09 g0102</name><styleUrl>#B</styleUrl><description>https://www.google.com/maps/search/?api=1&amp;query=31.225875,74.275816</description><Point><coordinates>74.275816,31.225875,0</coordinates></Point></Placemark>
<Placemark><name>g0102 outline</name><styleUrl>#B</styleUrl><Polygon><outerBoundaryIs><LinearRing><coordinates>74.275417,31.226405,0 74.275419,31.226045,0 74.275525,31.226045,0 74.275528,31.225594,0 74.276158,31.225597,0 74.276156,31.225868,0 74.275946,31.225867,0 74.275837,31.226408,0 74.275417,31.226405,0</coordinates></LinearRing></outerBoundaryIs></Polygon></Placemark>
<Placemark><name>B10 g0002</name><styleUrl>#B</styleUrl><description>https://www.google.com/maps/search/?api=1&amp;query=31.231054,74.274802</description><Point><coordinates>74.274802,31.231054,0</coordinates></Point></Placemark>
<Placemark><name>g0002 outline</name><styleUrl>#B</styleUrl><Polygon><outerBoundaryIs><LinearRing><coordinates>74.275060,31.231817,0 74.275061,31.231727,0 74.274956,31.231726,0 74.274959,31.231365,0 74.274644,31.231363,0 74.274647,31.231002,0 74.275906,31.231100,0 74.275903,31.231461,0 74.275693,31.231550,0 74.275691,31.231730,0 74.275586,31.231730,0 74.275585,31.231820,0 74.275060,31.231817,0</coordinates></LinearRing></outerBoundaryIs></Polygon></Placemark>
<Placemark><name>B11 g0004</name><styleUrl>#B</styleUrl><description>https://www.google.com/maps/search/?api=1&amp;query=31.235629,74.298896</description><Point><coordinates>74.298896,31.235629,0</coordinates></Point></Placemark>
<Placemark><name>g0004 outline</name><styleUrl>#B</styleUrl><Polygon><outerBoundaryIs><LinearRing><coordinates>74.298761,31.235738,0 74.298764,31.235467,0 74.299183,31.235469,0 74.299182,31.235740,0 74.298761,31.235738,0</coordinates></LinearRing></outerBoundaryIs></Polygon></Placemark>
<Placemark><name>B12 g0005</name><styleUrl>#B</styleUrl><description>https://www.google.com/maps/search/?api=1&amp;query=31.230096,74.312735</description><Point><coordinates>74.312735,31.230096,0</coordinates></Point></Placemark>
<Placemark><name>g0005 outline</name><styleUrl>#B</styleUrl><Polygon><outerBoundaryIs><LinearRing><coordinates>74.312136,31.230306,0 74.312139,31.230036,0 74.312454,31.230037,0 74.312454,31.229947,0 74.312874,31.229949,0 74.312872,31.230220,0 74.312557,31.230218,0 74.312556,31.230308,0 74.312136,31.230306,0</coordinates></LinearRing></outerBoundaryIs></Polygon></Placemark>
<Placemark><name>B13 g0006</name><styleUrl>#B</styleUrl><description>https://www.google.com/maps/search/?api=1&amp;query=31.231641,74.319748</description><Point><coordinates>74.319748,31.231641,0</coordinates></Point></Placemark>
<Placemark><name>g0006 outline</name><styleUrl>#B</styleUrl><Polygon><outerBoundaryIs><LinearRing><coordinates>74.319372,31.231698,0 74.319372,31.231608,0 74.319267,31.231607,0 74.319270,31.231156,0 74.319795,31.231159,0 74.319795,31.231249,0 74.320005,31.231250,0 74.320001,31.231701,0 74.319372,31.231698,0</coordinates></LinearRing></outerBoundaryIs></Polygon></Placemark>
<Placemark><name>B14 g0109</name><styleUrl>#B</styleUrl><description>https://www.google.com/maps/search/?api=1&amp;query=31.226706,74.354060</description><Point><coordinates>74.354060,31.226706,0</coordinates></Point></Placemark>
<Placemark><name>g0109 outline</name><styleUrl>#B</styleUrl><Polygon><outerBoundaryIs><LinearRing><coordinates>74.354056,31.226644,0 74.354058,31.226373,0 74.355003,31.226378,0 74.355001,31.226649,0 74.354056,31.226644,0</coordinates></LinearRing></outerBoundaryIs></Polygon></Placemark>
<Placemark><name>B15 g0509</name><styleUrl>#B</styleUrl><description>https://www.google.com/maps/search/?api=1&amp;query=31.188806,74.347298</description><Point><coordinates>74.347298,31.188806,0</coordinates></Point></Placemark>
<Placemark><name>g0509 outline</name><styleUrl>#B</styleUrl><Polygon><outerBoundaryIs><LinearRing><coordinates>74.346755,31.189073,0 74.346758,31.188622,0 74.346968,31.188623,0 74.346968,31.188533,0 74.347388,31.188535,0 74.347384,31.189076,0 74.346755,31.189073,0</coordinates></LinearRing></outerBoundaryIs></Polygon></Placemark>
<Placemark><name>B16 g0609</name><styleUrl>#B</styleUrl><description>https://www.google.com/maps/search/?api=1&amp;query=31.178231,74.348547</description><Point><coordinates>74.348547,31.178231,0</coordinates></Point></Placemark>
<Placemark><name>g0609 outline</name><styleUrl>#B</styleUrl><Polygon><outerBoundaryIs><LinearRing><coordinates>74.348507,31.178345,0 74.348508,31.178254,0 74.348088,31.178252,0 74.348094,31.177440,0 74.348723,31.177534,0 74.348722,31.177624,0 74.348827,31.177624,0 74.348827,31.177715,0 74.349036,31.177806,0 74.349035,31.177986,0 74.349140,31.177987,0 74.349138,31.178258,0 74.348507,31.178345,0</coordinates></LinearRing></outerBoundaryIs></Polygon></Placemark>
</Folder>
</Document></kml>