{
  "type": "FeatureCollection",
  "features": [
    {"type": "Feature", "properties": {"name": "g0000", "block": "strip_1", "role": "test", "sample": "grid"}, "geometry": {"type": "Point", "coordinates": [74.2519447, 31.2322823]}},
    {"type": "Feature", "properties": {"name": "g0001", "block": "strip_1", "role": "train", "sample": "grid"}, "geometry": {"type": "Point", "coordinates": [74.2654528, 31.2347909]}},
    {"type": "Feature", "properties": {"name": "g0002", "block": "strip_2", "role": "train", "sample": "grid"}, "geometry": {"type": "Point", "coordinates": [74.274802, 31.2310544]}},
    {"type": "Feature", "properties": {"name": "g0003", "block": "strip_2", "role": "test", "sample": "grid"}, "geometry": {"type": "Point", "coordinates": [74.2910373, 31.2366772]}},
    {"type": "Feature", "properties": {"name": "g0004", "block": "strip_3", "role": "train", "sample": "grid"}, "geometry": {"type": "Point", "coordinates": [74.2988957, 31.235629]}},
    {"type": "Feature", "properties": {"name": "g0005", "block": "strip_3", "role": "train", "sample": "grid"}, "geometry": {"type": "Point", "coordinates": [74.3127352, 31.2300958]}},
    {"type": "Feature", "properties": {"name": "g0006", "block": "strip_4", "role": "train", "sample": "grid"}, "geometry": {"type": "Point", "coordinates": [74.3197476, 31.2316409]}},
    {"type": "Feature", "properties": {"name": "g0007", "block": "strip_4", "role": "train", "sample": "grid"}, "geometry": {"type": "Point", "coordinates": [74.3289845, 31.2310293]}},
    {"type": "Feature", "properties": {"name": "g0008", "block": "strip_5", "role": "train", "sample": "grid"}, "geometry": {"type": "Point", "coordinates": [74.3387524, 31.2354747]}},
    {"type": "Feature", "properties": {"name": "g0009", "block": "strip_5", "role": "test", "sample": "grid"}, "geometry": {"type": "Point", "coordinates": [74.3474555, 31.236534]}},
    {"type": "Feature", "properties": {"name": "g0100", "block": "strip_1", "role": "train", "sample": "grid"}, "geometry": {"type": "Point", "coordinates": [74.2556427, 31.2251669]}},
    {"type": "Feature", "properties": {"name": "g0101", "block": "strip_1", "role": "train", "sample": "grid"}, "geometry": {"type": "Point", "coordinates": [74.2675546, 31.2290074]}},
    {"type": "Feature", "properties": {"name": "g0102", "block": "strip_2", "role": "train", "sample": "grid"}, "geometry": {"type": "Point", "coordinates": [74.2758157, 31.2258751]}},
    {"type": "Feature", "properties": {"name": "g0103", "block": "strip_2", "role": "train", "sample": "grid"}, "geometry": {"type": "Point", "coordinates": [74.2836814, 31.2238468]}},
    {"type": "Feature", "properties": {"name": "g0104", "block": "strip_3", "role": "train", "sample": "grid"}, "geometry": {"type": "Point", "coordinates": [74.2966792, 31.2265791]}},
    {"type": "Feature", "properties": {"name": "g0105", "block": "strip_3", "role": "train", "sample": "grid"}, "geometry": {"type": "Point", "coordinates": [74.3048445, 31.2214388]}},
    {"type": "Feature", "properties": {"name": "g0106", "block": "strip_4", "role": "train", "sample": "grid"}, "geometry": {"type": "Point", "coordinates": [74.3214993, 31.2239451]}},
    {"type": "Feature", "properties": {"name": "g0107", "block": "strip_4", "role": "train", "sample": "grid"}, "geometry": {"type": "Point", "coordinates": [74.3272706, 31.2209067]}},
    {"type": "Feature", "properties": {"name": "g0108", "block": "strip_5", "role": "train", "sample": "grid"}, "geometry": {"type": "Point", "coordinates": [74.3400285, 31.2256109]}},
    {"type": "Feature", "properties": {"name": "g0109", "block": "strip_5", "role": "train", "sample": "grid"}, "geometry": {"type": "Point", "coordinates": [74.3540595, 31.2267055]}},
    {"type": "Feature", "properties": {"name": "g0200", "block": "strip_1", "role": "test", "sample": "grid"}, "geometry": {"type": "Point", "coordinates": [74.2574917, 31.2172115]}},
    {"type": "Feature", "properties": {"name": "g0201", "block": "strip_1", "role": "train", "sample": "grid"}, "geometry": {"type": "Point", "coordinates": [74.2634559, 31.2137539]}},
    {"type": "Feature", "properties": {"name": "g0202", "block": "strip_2", "role": "test", "sample": "grid"}, "geometry": {"type": "Point", "coordinates": [74.2735858, 31.2156857]}},
    {"type": "Feature", "properties": {"name": "g0203", "block": "strip_2", "role": "train", "sample": "grid"}, "geometry": {"type": "Point", "coordinates": [74.2877597, 31.2185097]}},
    {"type": "Feature", "properties": {"name": "g0204", "block": "strip_3", "role": "test", "sample": "grid"}, "geometry": {"type": "Point", "coordinates": [74.2998692, 31.2153319]}},
    {"type": "Feature", "properties": {"name": "g0205", "block": "strip_3", "role": "train", "sample": "grid"}, "geometry": {"type": "Point", "coordinates": [74.3092034, 31.2169734]}},
    {"type": "Feature", "properties": {"name": "g0206", "block": "strip_4", "role": "test", "sample": "grid"}, "geometry": {"type": "Point", "coordinates": [74.317596, 31.2159112]}},
    {"type": "Feature", "properties": {"name": "g0207", "block": "strip_4", "role": "train", "sample": "grid"}, "geometry": {"type": "Point", "coordinates": [74.328628, 31.2143379]}},
    {"type": "Feature", "properties": {"name": "g0208", "block": "strip_5", "role": "train", "sample": "grid"}, "geometry": {"type": "Point", "coordinates": [74.340235, 31.2167382]}},
    {"type": "Feature", "properties": {"name": "g0209", "block": "strip_5", "role": "train", "sample": "grid"}, "geometry": {"type": "Point", "coordinates": [74.3447162, 31.2133527]}},
    {"type": "Feature", "properties": {"name": "g0300", "block": "strip_1", "role": "train", "sample": "grid"}, "geometry": {"type": "Point", "coordinates": [74.2557092, 31.2080638]}},
    {"type": "Feature", "properties": {"name": "g0301", "block": "strip_1", "role": "train", "sample": "grid"}, "geometry": {"type": "Point", "coordinates": [74.2659859, 31.210226]}},
    {"type": "Feature", "properties": {"name": "g0302", "block": "strip_2", "role": "train", "sample": "grid"}, "geometry": {"type": "Point", "coordinates": [74.280793, 31.2022228]}},
    {"type": "Feature", "properties": {"name": "g0303", "block": "strip_2", "role": "test", "sample": "grid"}, "geometry": {"type": "Point", "coordinates": [74.2823668, 31.2079294]}},
    {"type": "Feature", "properties": {"name": "g0304", "block": "strip_3", "role": "train", "sample": "grid"}, "geometry": {"type": "Point", "coordinates": [74.2999077, 31.208423]}},
    {"type": "Feature", "properties": {"name": "g0305", "block": "strip_3", "role": "train", "sample": "grid"}, "geometry": {"type": "Point", "coordinates": [74.3087003, 31.2075472]}},
    {"type": "Feature", "properties": {"name": "g0306", "block": "strip_4", "role": "test", "sample": "grid"}, "geometry": {"type": "Point", "coordinates": [74.3214068, 31.2027255]}},
    {"type": "Feature", "properties": {"name": "g0307", "block": "strip_4", "role": "train", "sample": "grid"}, "geometry": {"type": "Point", "coordinates": [74.3330804, 31.205832]}},
    {"type": "Feature", "properties": {"name": "g0308", "block": "strip_5", "role": "train", "sample": "grid"}, "geometry": {"type": "Point", "coordinates": [74.3359549, 31.2029043]}},
    {"type": "Feature", "properties": {"name": "g0309", "block": "strip_5", "role": "train", "sample": "grid"}, "geometry": {"type": "Point", "coordinates": [74.3449767, 31.2088095]}},
    {"type": "Feature", "properties": {"name": "g0400", "block": "strip_1", "role": "train", "sample": "grid"}, "geometry": {"type": "Point", "coordinates": [74.2533087, 31.195912]}},
    {"type": "Feature", "properties": {"name": "g0401", "block": "strip_1", "role": "train", "sample": "grid"}, "geometry": {"type": "Point", "coordinates": [74.2659234, 31.2012081]}},
    {"type": "Feature", "properties": {"name": "g0402", "block": "strip_2", "role": "test", "sample": "grid"}, "geometry": {"type": "Point", "coordinates": [74.2714744, 31.1966252]}},
    {"type": "Feature", "properties": {"name": "g0403", "block": "strip_2", "role": "train", "sample": "grid"}, "geometry": {"type": "Point", "coordinates": [74.2869934, 31.1967386]}},
    {"type": "Feature", "properties": {"name": "g0404", "block": "strip_3", "role": "test", "sample": "grid"}, "geometry": {"type": "Point", "coordinates": [74.2982698, 31.1941924]}},
    {"type": "Feature", "properties": {"name": "g0405", "block": "strip_3", "role": "train", "sample": "grid"}, "geometry": {"type": "Point", "coordinates": [74.3124388, 31.2006046]}},
    {"type": "Feature", "properties": {"name": "g0406", "block": "strip_4", "role": "test", "sample": "grid"}, "geometry": {"type": "Point", "coordinates": [74.3232225, 31.195253]}},
    {"type": "Feature", "properties": {"name": "g0407", "block": "strip_4", "role": "train", "sample": "grid"}, "geometry": {"type": "Point", "coordinates": [74.3305288, 31.1964472]}},
    {"type": "Feature", "properties": {"name": "g0408", "block": "strip_5", "role": "test", "sample": "grid"}, "geometry": {"type": "Point", "coordinates": [74.340065, 31.1941717]}},
    {"type": "Feature", "properties": {"name": "g0409", "block": "strip_5", "role": "test", "sample": "grid"}, "geometry": {"type": "Point", "coordinates": [74.3472579, 31.1970771]}},
    {"type": "Feature", "properties": {"name": "g0500", "block": "strip_1", "role": "train", "sample": "grid"}, "geometry": {"type": "Point", "coordinates": [74.2589315, 31.1917676]}},
    {"type": "Feature", "properties": {"name": "g0501", "block": "strip_1", "role": "test", "sample": "grid"}, "geometry": {"type": "Point", "coordinates": [74.2673595, 31.1893972]}},
    {"type": "Feature", "properties": {"name": "g0502", "block": "strip_2", "role": "train", "sample": "grid"}, "geometry": {"type": "Point", "coordinates": [74.2794112, 31.1924889]}},
    {"type": "Feature", "properties": {"name": "g0503", "block": "strip_2", "role": "test", "sample": "grid"}, "geometry": {"type": "Point", "coordinates": [74.2882887, 31.1854161]}},
    {"type": "Feature", "properties": {"name": "g0504", "block": "strip_3", "role": "train", "sample": "grid"}, "geometry": {"type": "Point", "coordinates": [74.2989735, 31.1903086]}},
    {"type": "Feature", "properties": {"name": "g0505", "block": "strip_3", "role": "train", "sample": "grid"}, "geometry": {"type": "Point", "coordinates": [74.3097578, 31.1902151]}},
    {"type": "Feature", "properties": {"name": "g0506", "block": "strip_4", "role": "train", "sample": "grid"}, "geometry": {"type": "Point", "coordinates": [74.3203736, 31.1921647]}},
    {"type": "Feature", "properties": {"name": "g0507", "block": "strip_4", "role": "test", "sample": "grid"}, "geometry": {"type": "Point", "coordinates": [74.3267843, 31.1930612]}},
    {"type": "Feature", "properties": {"name": "g0508", "block": "strip_5", "role": "test", "sample": "grid"}, "geometry": {"type": "Point", "coordinates": [74.3352547, 31.1883949]}},
    {"type": "Feature", "properties": {"name": "g0509", "block": "strip_5", "role": "train", "sample": "grid"}, "geometry": {"type": "Point", "coordinates": [74.3472983, 31.1888056]}},
    {"type": "Feature", "properties": {"name": "g0600", "block": "strip_1", "role": "test", "sample": "grid"}, "geometry": {"type": "Point", "coordinates": [74.2574312, 31.1760016]}},
    {"type": "Feature", "properties": {"name": "g0601", "block": "strip_1", "role": "train", "sample": "grid"}, "geometry": {"type": "Point", "coordinates": [74.26469, 31.1811186]}},
    {"type": "Feature", "properties": {"name": "g0602", "block": "strip_2", "role": "train", "sample": "grid"}, "geometry": {"type": "Point", "coordinates": [74.2747358, 31.1829876]}},
    {"type": "Feature", "properties": {"name": "g0603", "block": "strip_2", "role": "train", "sample": "grid"}, "geometry": {"type": "Point", "coordinates": [74.2889452, 31.1767348]}},
    {"type": "Feature", "properties": {"name": "g0604", "block": "strip_3", "role": "train", "sample": "grid"}, "geometry": {"type": "Point", "coordinates": [74.2974256, 31.1791395]}},
    {"type": "Feature", "properties": {"name": "g0605", "block": "strip_3", "role": "test", "sample": "grid"}, "geometry": {"type": "Point", "coordinates": [74.3130231, 31.1779549]}},
    {"type": "Feature", "properties": {"name": "g0606", "block": "strip_4", "role": "train", "sample": "grid"}, "geometry": {"type": "Point", "coordinates": [74.3212893, 31.1762792]}},
    {"type": "Feature", "properties": {"name": "g0607", "block": "strip_4", "role": "train", "sample": "grid"}, "geometry": {"type": "Point", "coordinates": [74.3262139, 31.1784645]}},
    {"type": "Feature", "properties": {"name": "g0608", "block": "strip_5", "role": "train", "sample": "grid"}, "geometry": {"type": "Point", "coordinates": [74.3419834, 31.1768132]}},
    {"type": "Feature", "properties": {"name": "g0609", "block": "strip_5", "role": "train", "sample": "grid"}, "geometry": {"type": "Point", "coordinates": [74.3485471, 31.1782309]}},
    {"type": "Feature", "properties": {"name": "g0700", "block": "strip_1", "role": "train", "sample": "grid"}, "geometry": {"type": "Point", "coordinates": [74.2568895, 31.171233]}},
    {"type": "Feature", "properties": {"name": "g0701", "block": "strip_1", "role": "test", "sample": "grid"}, "geometry": {"type": "Point", "coordinates": [74.2621035, 31.1717711]}},
    {"type": "Feature", "properties": {"name": "g0702", "block": "strip_2", "role": "train", "sample": "grid"}, "geometry": {"type": "Point", "coordinates": [74.2816299, 31.1731133]}},
    {"type": "Feature", "properties": {"name": "g0703", "block": "strip_2", "role": "train", "sample": "grid"}, "geometry": {"type": "Point", "coordinates": [74.2832158, 31.1717583]}},
    {"type": "Feature", "properties": {"name": "g0704", "block": "strip_3", "role": "train", "sample": "grid"}, "geometry": {"type": "Point", "coordinates": [74.2935692, 31.1727222]}},
    {"type": "Feature", "properties": {"name": "g0705", "block": "strip_3", "role": "train", "sample": "grid"}, "geometry": {"type": "Point", "coordinates": [74.3126016, 31.1723598]}},
    {"type": "Feature", "properties": {"name": "g0706", "block": "strip_4", "role": "train", "sample": "grid"}, "geometry": {"type": "Point", "coordinates": [74.3196418, 31.1731194]}},
    {"type": "Feature", "properties": {"name": "g0707", "block": "strip_4", "role": "test", "sample": "grid"}, "geometry": {"type": "Point", "coordinates": [74.3309894, 31.1741811]}},
    {"type": "Feature", "properties": {"name": "g0708", "block": "strip_5", "role": "train", "sample": "grid"}, "geometry": {"type": "Point", "coordinates": [74.3427795, 31.1715776]}},
    {"type": "Feature", "properties": {"name": "g0709", "block": "strip_5", "role": "test", "sample": "grid"}, "geometry": {"type": "Point", "coordinates": [74.346933, 31.1685734]}},
    {"type": "Feature", "properties": {"name": "g0800", "block": "strip_1", "role": "test", "sample": "grid"}, "geometry": {"type": "Point", "coordinates": [74.2564361, 31.161948]}},
    {"type": "Feature", "properties": {"name": "g0801", "block": "strip_1", "role": "train", "sample": "grid"}, "geometry": {"type": "Point", "coordinates": [74.263661, 31.1588928]}},
    {"type": "Feature", "properties": {"name": "g0802", "block": "strip_2", "role": "train", "sample": "grid"}, "geometry": {"type": "Point", "coordinates": [74.2754097, 31.1656206]}},
    {"type": "Feature", "properties": {"name": "g0803", "block": "strip_2", "role": "test", "sample": "grid"}, "geometry": {"type": "Point", "coordinates": [74.2921974, 31.165828]}},
    {"type": "Feature", "properties": {"name": "g0804", "block": "strip_3", "role": "test", "sample": "grid"}, "geometry": {"type": "Point", "coordinates": [74.2938539, 31.161909]}},
    {"type": "Feature", "properties": {"name": "g0805", "block": "strip_3", "role": "test", "sample": "grid"}, "geometry": {"type": "Point", "coordinates": [74.3052541, 31.1631501]}},
    {"type": "Feature", "properties": {"name": "g0806", "block": "strip_4", "role": "train", "sample": "grid"}, "geometry": {"type": "Point", "coordinates": [74.3195604, 31.157608]}},
    {"type": "Feature", "properties": {"name": "g0807", "block": "strip_4", "role": "train", "sample": "grid"}, "geometry": {"type": "Point", "coordinates": [74.3338648, 31.1656584]}},
    {"type": "Feature", "properties": {"name": "g0808", "block": "strip_5", "role": "train", "sample": "grid"}, "geometry": {"type": "Point", "coordinates": [74.3434922, 31.1648604]}},
    {"type": "Feature", "properties": {"name": "g0809", "block": "strip_5", "role": "test", "sample": "grid"}, "geometry": {"type": "Point", "coordinates": [74.353553, 31.1637517]}},
    {"type": "Feature", "properties": {"name": "g0900", "block": "strip_1", "role": "train", "sample": "grid"}, "geometry": {"type": "Point", "coordinates": [74.258242, 31.1504036]}},
    {"type": "Feature", "properties": {"name": "g0901", "block": "strip_1", "role": "train", "sample": "grid"}, "geometry": {"type": "Point", "coordinates": [74.2701429, 31.1481182]}},
    {"type": "Feature", "properties": {"name": "g0902", "block": "strip_2", "role": "train", "sample": "grid"}, "geometry": {"type": "Point", "coordinates": [74.2745764, 31.1513131]}},
    {"type": "Feature", "properties": {"name": "g0903", "block": "strip_2", "role": "train", "sample": "grid"}, "geometry": {"type": "Point", "coordinates": [74.2898956, 31.156349]}},
    {"type": "Feature", "properties": {"name": "g0904", "block": "strip_3", "role": "train", "sample": "grid"}, "geometry": {"type": "Point", "coordinates": [74.2996025, 31.1542197]}},
    {"type": "Feature", "properties": {"name": "g0905", "block": "strip_3", "role": "test", "sample": "grid"}, "geometry": {"type": "Point", "coordinates": [74.3048474, 31.1521913]}},
    {"type": "Feature", "properties": {"name": "g0906", "block": "strip_4", "role": "train", "sample": "grid"}, "geometry": {"type": "Point", "coordinates": [74.3184916, 31.1520152]}},
    {"type": "Feature", "properties": {"name": "g0907", "block": "strip_4", "role": "test", "sample": "grid"}, "geometry": {"type": "Point", "coordinates": [74.3308662, 31.1527876]}},
    {"type": "Feature", "properties": {"name": "g0908", "block": "strip_5", "role": "train", "sample": "grid"}, "geometry": {"type": "Point", "coordinates": [74.3440989, 31.1557497]}},
    {"type": "Feature", "properties": {"name": "g0909", "block": "strip_5", "role": "train", "sample": "grid"}, "geometry": {"type": "Point", "coordinates": [74.3481348, 31.1541614]}}
  ]
}
