<?xml version="1.0" encoding="UTF-8"?>
<kml xmlns="http://www.opengis.net/kml/2.2"><Document><name>crop_project sample points</name>
<Style id="test"><IconStyle><color>ff0000ff</color><scale>0.8</scale></IconStyle></Style>
<Style id="train"><IconStyle><color>ff00ff00</color><scale>0.8</scale></IconStyle></Style>
<Placemark><name>g0000</name><styleUrl>#test</styleUrl><description>test, strip_1</description><Point><coordinates>74.251945,31.232282,0</coordinates></Point></Placemark>
<Placemark><name>g0001</name><styleUrl>#train</styleUrl><description>train, strip_1</description><Point><coordinates>74.265453,31.234791,0</coordinates></Point></Placemark>
<Placemark><name>g0002</name><styleUrl>#train</styleUrl><description>train, strip_2</description><Point><coordinates>74.274802,31.231054,0</coordinates></Point></Placemark>
<Placemark><name>g0003</name><styleUrl>#test</styleUrl><description>test, strip_2</description><Point><coordinates>74.291037,31.236677,0</coordinates></Point></Placemark>
<Placemark><name>g0004</name><styleUrl>#train</styleUrl><description>train, strip_3</description><Point><coordinates>74.298896,31.235629,0</coordinates></Point></Placemark>
<Placemark><name>g0005</name><styleUrl>#train</styleUrl><description>train, strip_3</description><Point><coordinates>74.312735,31.230096,0</coordinates></Point></Placemark>
<Placemark><name>g0006</name><styleUrl>#train</styleUrl><description>train, strip_4</description><Point><coordinates>74.319748,31.231641,0</coordinates></Point></Placemark>
<Placemark><name>g0007</name><styleUrl>#train</styleUrl><description>train, strip_4</description><Point><coordinates>74.328984,31.231029,0</coordinates></Point></Placemark>
<Placemark><name>g0008</name><styleUrl>#train</styleUrl><description>train, strip_5</description><Point><coordinates>74.338752,31.235475,0</coordinates></Point></Placemark>
<Placemark><name>g0009</name><styleUrl>#test</styleUrl><description>test, strip_5</description><Point><coordinates>74.347455,31.236534,0</coordinates></Point></Placemark>
<Placemark><name>g0100</name><styleUrl>#train</styleUrl><description>train, strip_1</description><Point><coordinates>74.255643,31.225167,0</coordinates></Point></Placemark>
<Placemark><name>g0101</name><styleUrl>#train</styleUrl><description>train, strip_1</description><Point><coordinates>74.267555,31.229007,0</coordinates></Point></Placemark>
<Placemark><name>g0102</name><styleUrl>#train</styleUrl><description>train, strip_2</description><Point><coordinates>74.275816,31.225875,0</coordinates></Point></Placemark>
<Placemark><name>g0103</name><styleUrl>#train</styleUrl><description>train, strip_2</description><Point><coordinates>74.283681,31.223847,0</coordinates></Point></Placemark>
<Placemark><name>g0104</name><styleUrl>#train</styleUrl><description>train, strip_3</description><Point><coordinates>74.296679,31.226579,0</coordinates></Point></Placemark>
<Placemark><name>g0105</name><styleUrl>#train</styleUrl><description>train, strip_3</description><Point><coordinates>74.304844,31.221439,0</coordinates></Point></Placemark>
<Placemark><name>g0106</name><styleUrl>#train</styleUrl><description>train, strip_4</description><Point><coordinates>74.321499,31.223945,0</coordinates></Point></Placemark>
<Placemark><name>g0107</name><styleUrl>#train</styleUrl><description>train, strip_4</description><Point><coordinates>74.327271,31.220907,0</coordinates></Point></Placemark>
<Placemark><name>g0108</name><styleUrl>#train</styleUrl><description>train, strip_5</description><Point><coordinates>74.340028,31.225611,0</coordinates></Point></Placemark>
<Placemark><name>g0109</name><styleUrl>#train</styleUrl><description>train, strip_5</description><Point><coordinates>74.354060,31.226706,0</coordinates></Point></Placemark>
<Placemark><name>g0200</name><styleUrl>#test</styleUrl><description>test, strip_1</description><Point><coordinates>74.257492,31.217211,0</coordinates></Point></Placemark>
<Placemark><name>g0201</name><styleUrl>#train</styleUrl><description>train, strip_1</description><Point><coordinates>74.263456,31.213754,0</coordinates></Point></Placemark>
<Placemark><name>g0202</name><styleUrl>#test</styleUrl><description>test, strip_2</description><Point><coordinates>74.273586,31.215686,0</coordinates></Point></Placemark>
<Placemark><name>g0203</name><styleUrl>#train</styleUrl><description>train, strip_2</description><Point><coordinates>74.287760,31.218510,0</coordinates></Point></Placemark>
<Placemark><name>g0204</name><styleUrl>#test</styleUrl><description>test, strip_3</description><Point><coordinates>74.299869,31.215332,0</coordinates></Point></Placemark>
<Placemark><name>g0205</name><styleUrl>#train</styleUrl><description>train, strip_3</description><Point><coordinates>74.309203,31.216973,0</coordinates></Point></Placemark>
<Placemark><name>g0206</name><styleUrl>#test</styleUrl><description>test, strip_4</description><Point><coordinates>74.317596,31.215911,0</coordinates></Point></Placemark>
<Placemark><name>g0207</name><styleUrl>#train</styleUrl><description>train, strip_4</description><Point><coordinates>74.328628,31.214338,0</coordinates></Point></Placemark>
<Placemark><name>g0208</name><styleUrl>#train</styleUrl><description>train, strip_5</description><Point><coordinates>74.340235,31.216738,0</coordinates></Point></Placemark>
<Placemark><name>g0209</name><styleUrl>#train</styleUrl><description>train, strip_5</description><Point><coordinates>74.344716,31.213353,0</coordinates></Point></Placemark>
<Placemark><name>g0300</name><styleUrl>#train</styleUrl><description>train, strip_1</description><Point><coordinates>74.255709,31.208064,0</coordinates></Point></Placemark>
<Placemark><name>g0301</name><styleUrl>#train</styleUrl><description>train, strip_1</description><Point><coordinates>74.265986,31.210226,0</coordinates></Point></Placemark>
<Placemark><name>g0302</name><styleUrl>#train</styleUrl><description>train, strip_2</description><Point><coordinates>74.280793,31.202223,0</coordinates></Point></Placemark>
<Placemark><name>g0303</name><styleUrl>#test</styleUrl><description>test, strip_2</description><Point><coordinates>74.282367,31.207929,0</coordinates></Point></Placemark>
<Placemark><name>g0304</name><styleUrl>#train</styleUrl><description>train, strip_3</description><Point><coordinates>74.299908,31.208423,0</coordinates></Point></Placemark>
<Placemark><name>g0305</name><styleUrl>#train</styleUrl><description>train, strip_3</description><Point><coordinates>74.308700,31.207547,0</coordinates></Point></Placemark>
<Placemark><name>g0306</name><styleUrl>#test</styleUrl><description>test, strip_4</description><Point><coordinates>74.321407,31.202726,0</coordinates></Point></Placemark>
<Placemark><name>g0307</name><styleUrl>#train</styleUrl><description>train, strip_4</description><Point><coordinates>74.333080,31.205832,0</coordinates></Point></Placemark>
<Placemark><name>g0308</name><styleUrl>#train</styleUrl><description>train, strip_5</description><Point><coordinates>74.335955,31.202904,0</coordinates></Point></Placemark>
<Placemark><name>g0309</name><styleUrl>#train</styleUrl><description>train, strip_5</description><Point><coordinates>74.344977,31.208809,0</coordinates></Point></Placemark>
<Placemark><name>g0400</name><styleUrl>#train</styleUrl><description>train, strip_1</description><Point><coordinates>74.253309,31.195912,0</coordinates></Point></Placemark>
<Placemark><name>g0401</name><styleUrl>#train</styleUrl><description>train, strip_1</description><Point><coordinates>74.265923,31.201208,0</coordinates></Point></Placemark>
<Placemark><name>g0402</name><styleUrl>#test</styleUrl><description>test, strip_2</description><Point><coordinates>74.271474,31.196625,0</coordinates></Point></Placemark>
<Placemark><name>g0403</name><styleUrl>#train</styleUrl><description>train, strip_2</description><Point><coordinates>74.286993,31.196739,0</coordinates></Point></Placemark>
<Placemark><name>g0404</name><styleUrl>#test</styleUrl><description>test, strip_3</description><Point><coordinates>74.298270,31.194192,0</coordinates></Point></Placemark>
<Placemark><name>g0405</name><styleUrl>#train</styleUrl><description>train, strip_3</description><Point><coordinates>74.312439,31.200605,0</coordinates></Point></Placemark>
<Placemark><name>g0406</name><styleUrl>#test</styleUrl><description>test, strip_4</description><Point><coordinates>74.323223,31.195253,0</coordinates></Point></Placemark>
<Placemark><name>g0407</name><styleUrl>#train</styleUrl><description>train, strip_4</description><Point><coordinates>74.330529,31.196447,0</coordinates></Point></Placemark>
<Placemark><name>g0408</name><styleUrl>#test</styleUrl><description>test, strip_5</description><Point><coordinates>74.340065,31.194172,0</coordinates></Point></Placemark>
<Placemark><name>g0409</name><styleUrl>#test</styleUrl><description>test, strip_5</description><Point><coordinates>74.347258,31.197077,0</coordinates></Point></Placemark>
<Placemark><name>g0500</name><styleUrl>#train</styleUrl><description>train, strip_1</description><Point><coordinates>74.258931,31.191768,0</coordinates></Point></Placemark>
<Placemark><name>g0501</name><styleUrl>#test</styleUrl><description>test, strip_1</description><Point><coordinates>74.267359,31.189397,0</coordinates></Point></Placemark>
<Placemark><name>g0502</name><styleUrl>#train</styleUrl><description>train, strip_2</description><Point><coordinates>74.279411,31.192489,0</coordinates></Point></Placemark>
<Placemark><name>g0503</name><styleUrl>#test</styleUrl><description>test, strip_2</description><Point><coordinates>74.288289,31.185416,0</coordinates></Point></Placemark>
<Placemark><name>g0504</name><styleUrl>#train</styleUrl><description>train, strip_3</description><Point><coordinates>74.298974,31.190309,0</coordinates></Point></Placemark>
<Placemark><name>g0505</name><styleUrl>#train</styleUrl><description>train, strip_3</description><Point><coordinates>74.309758,31.190215,0</coordinates></Point></Placemark>
<Placemark><name>g0506</name><styleUrl>#train</styleUrl><description>train, strip_4</description><Point><coordinates>74.320374,31.192165,0</coordinates></Point></Placemark>
<Placemark><name>g0507</name><styleUrl>#test</styleUrl><description>test, strip_4</description><Point><coordinates>74.326784,31.193061,0</coordinates></Point></Placemark>
<Placemark><name>g0508</name><styleUrl>#test</styleUrl><description>test, strip_5</description><Point><coordinates>74.335255,31.188395,0</coordinates></Point></Placemark>
<Placemark><name>g0509</name><styleUrl>#train</styleUrl><description>train, strip_5</description><Point><coordinates>74.347298,31.188806,0</coordinates></Point></Placemark>
<Placemark><name>g0600</name><styleUrl>#test</styleUrl><description>test, strip_1</description><Point><coordinates>74.257431,31.176002,0</coordinates></Point></Placemark>
<Placemark><name>g0601</name><styleUrl>#train</styleUrl><description>train, strip_1</description><Point><coordinates>74.264690,31.181119,0</coordinates></Point></Placemark>
<Placemark><name>g0602</name><styleUrl>#train</styleUrl><description>train, strip_2</description><Point><coordinates>74.274736,31.182988,0</coordinates></Point></Placemark>
<Placemark><name>g0603</name><styleUrl>#train</styleUrl><description>train, strip_2</description><Point><coordinates>74.288945,31.176735,0</coordinates></Point></Placemark>
<Placemark><name>g0604</name><styleUrl>#train</styleUrl><description>train, strip_3</description><Point><coordinates>74.297426,31.179139,0</coordinates></Point></Placemark>
<Placemark><name>g0605</name><styleUrl>#test</styleUrl><description>test, strip_3</description><Point><coordinates>74.313023,31.177955,0</coordinates></Point></Placemark>
<Placemark><name>g0606</name><styleUrl>#train</styleUrl><description>train, strip_4</description><Point><coordinates>74.321289,31.176279,0</coordinates></Point></Placemark>
<Placemark><name>g0607</name><styleUrl>#train</styleUrl><description>train, strip_4</description><Point><coordinates>74.326214,31.178464,0</coordinates></Point></Placemark>
<Placemark><name>g0608</name><styleUrl>#train</styleUrl><description>train, strip_5</description><Point><coordinates>74.341983,31.176813,0</coordinates></Point></Placemark>
<Placemark><name>g0609</name><styleUrl>#train</styleUrl><description>train, strip_5</description><Point><coordinates>74.348547,31.178231,0</coordinates></Point></Placemark>
<Placemark><name>g0700</name><styleUrl>#train</styleUrl><description>train, strip_1</description><Point><coordinates>74.256889,31.171233,0</coordinates></Point></Placemark>
<Placemark><name>g0701</name><styleUrl>#test</styleUrl><description>test, strip_1</description><Point><coordinates>74.262103,31.171771,0</coordinates></Point></Placemark>
<Placemark><name>g0702</name><styleUrl>#train</styleUrl><description>train, strip_2</description><Point><coordinates>74.281630,31.173113,0</coordinates></Point></Placemark>
<Placemark><name>g0703</name><styleUrl>#train</styleUrl><description>train, strip_2</description><Point><coordinates>74.283216,31.171758,0</coordinates></Point></Placemark>
<Placemark><name>g0704</name><styleUrl>#train</styleUrl><description>train, strip_3</description><Point><coordinates>74.293569,31.172722,0</coordinates></Point></Placemark>
<Placemark><name>g0705</name><styleUrl>#train</styleUrl><description>train, strip_3</description><Point><coordinates>74.312602,31.172360,0</coordinates></Point></Placemark>
<Placemark><name>g0706</name><styleUrl>#train</styleUrl><description>train, strip_4</description><Point><coordinates>74.319642,31.173119,0</coordinates></Point></Placemark>
<Placemark><name>g0707</name><styleUrl>#test</styleUrl><description>test, strip_4</description><Point><coordinates>74.330989,31.174181,0</coordinates></Point></Placemark>
<Placemark><name>g0708</name><styleUrl>#train</styleUrl><description>train, strip_5</description><Point><coordinates>74.342780,31.171578,0</coordinates></Point></Placemark>
<Placemark><name>g0709</name><styleUrl>#test</styleUrl><description>test, strip_5</description><Point><coordinates>74.346933,31.168573,0</coordinates></Point></Placemark>
<Placemark><name>g0800</name><styleUrl>#test</styleUrl><description>test, strip_1</description><Point><coordinates>74.256436,31.161948,0</coordinates></Point></Placemark>
<Placemark><name>g0801</name><styleUrl>#train</styleUrl><description>train, strip_1</description><Point><coordinates>74.263661,31.158893,0</coordinates></Point></Placemark>
<Placemark><name>g0802</name><styleUrl>#train</styleUrl><description>train, strip_2</description><Point><coordinates>74.275410,31.165621,0</coordinates></Point></Placemark>
<Placemark><name>g0803</name><styleUrl>#test</styleUrl><description>test, strip_2</description><Point><coordinates>74.292197,31.165828,0</coordinates></Point></Placemark>
<Placemark><name>g0804</name><styleUrl>#test</styleUrl><description>test, strip_3</description><Point><coordinates>74.293854,31.161909,0</coordinates></Point></Placemark>
<Placemark><name>g0805</name><styleUrl>#test</styleUrl><description>test, strip_3</description><Point><coordinates>74.305254,31.163150,0</coordinates></Point></Placemark>
<Placemark><name>g0806</name><styleUrl>#train</styleUrl><description>train, strip_4</description><Point><coordinates>74.319560,31.157608,0</coordinates></Point></Placemark>
<Placemark><name>g0807</name><styleUrl>#train</styleUrl><description>train, strip_4</description><Point><coordinates>74.333865,31.165658,0</coordinates></Point></Placemark>
<Placemark><name>g0808</name><styleUrl>#train</styleUrl><description>train, strip_5</description><Point><coordinates>74.343492,31.164860,0</coordinates></Point></Placemark>
<Placemark><name>g0809</name><styleUrl>#test</styleUrl><description>test, strip_5</description><Point><coordinates>74.353553,31.163752,0</coordinates></Point></Placemark>
<Placemark><name>g0900</name><styleUrl>#train</styleUrl><description>train, strip_1</description><Point><coordinates>74.258242,31.150404,0</coordinates></Point></Placemark>
<Placemark><name>g0901</name><styleUrl>#train</styleUrl><description>train, strip_1</description><Point><coordinates>74.270143,31.148118,0</coordinates></Point></Placemark>
<Placemark><name>g0902</name><styleUrl>#train</styleUrl><description>train, strip_2</description><Point><coordinates>74.274576,31.151313,0</coordinates></Point></Placemark>
<Placemark><name>g0903</name><styleUrl>#train</styleUrl><description>train, strip_2</description><Point><coordinates>74.289896,31.156349,0</coordinates></Point></Placemark>
<Placemark><name>g0904</name><styleUrl>#train</styleUrl><description>train, strip_3</description><Point><coordinates>74.299602,31.154220,0</coordinates></Point></Placemark>
<Placemark><name>g0905</name><styleUrl>#test</styleUrl><description>test, strip_3</description><Point><coordinates>74.304847,31.152191,0</coordinates></Point></Placemark>
<Placemark><name>g0906</name><styleUrl>#train</styleUrl><description>train, strip_4</description><Point><coordinates>74.318492,31.152015,0</coordinates></Point></Placemark>
<Placemark><name>g0907</name><styleUrl>#test</styleUrl><description>test, strip_4</description><Point><coordinates>74.330866,31.152788,0</coordinates></Point></Placemark>
<Placemark><name>g0908</name><styleUrl>#train</styleUrl><description>train, strip_5</description><Point><coordinates>74.344099,31.155750,0</coordinates></Point></Placemark>
<Placemark><name>g0909</name><styleUrl>#train</styleUrl><description>train, strip_5</description><Point><coordinates>74.348135,31.154161,0</coordinates></Point></Placemark>
</Document></kml>